{
  "type": "FeatureCollection",
  "features": [
    {
      "type": "Feature",
      "properties": {
        "norad_id": 43602,
        "name": "BEIDOU-3 M12 (C26)",
        "group": "beidou",
        "lat": 52.90490635564839,
        "lon": -65.80792917102056,
        "alt_km": 21508.76286677452,
        "timestamp": "2025-12-21T20:41:08.227473+00:00",
        "meta_object_name": "BEIDOU-3 M12 (C26)",
        "meta_object_id": "2018-067A",
        "meta_epoch": "2025-12-19T13:33:24.239232",
        "meta_mean_motion": 1.86227856,
        "meta_eccentricity": 0.00092481,
        "meta_inclination": 54.1835,
        "meta_ra_of_asc_node": 187.1314,
        "meta_arg_of_pericenter": 41.3287,
        "meta_mean_anomaly": 318.7989,
        "meta_ephemeris_type": 0,
        "meta_classification_type": "U",
        "meta_norad_cat_id": 43602,
        "meta_element_set_no": 999,
        "meta_rev_at_epoch": 4977,
        "meta_bstar": 0,
        "meta_mean_motion_dot": 1.01e-06,
        "meta_mean_motion_ddot": 0,
        "tle_line1": "1 43602U 18067A   25353.56486388  .00000101  00000+0  00000+0 0  9993",
        "tle_line2": "2 43602  54.1835 187.1314 0009248  41.3287 318.7989  1.86227856 49773"
      },
      "geometry": {
        "type": "Point",
        "coordinates": [
          -65.80792917102056,
          52.90490635564839
        ]
      }
    },
    {
      "type": "Feature",
      "properties": {
        "norad_id": 43603,
        "name": "BEIDOU-3 M11 (C25)",
        "group": "beidou",
        "lat": 7.976930069677971,
        "lon": -167.1661895244008,
        "alt_km": 21513.643989038115,
        "timestamp": "2025-12-21T20:41:08.227483+00:00",
        "meta_object_name": "BEIDOU-3 M11 (C25)",
        "meta_object_id": "2018-067B",
        "meta_epoch": "2025-12-20T18:33:33.170976",
        "meta_mean_motion": 1.86227367,
        "meta_eccentricity": 0.0005646,
        "meta_inclination": 54.1805,
        "meta_ra_of_asc_node": 187.0544,
        "meta_arg_of_pericenter": 37.4026,
        "meta_mean_anomaly": 322.6873,
        "meta_ephemeris_type": 0,
        "meta_classification_type": "U",
        "meta_norad_cat_id": 43603,
        "meta_element_set_no": 999,
        "meta_rev_at_epoch": 4982,
        "meta_bstar": 0,
        "meta_mean_motion_dot": 9.5e-07,
        "meta_mean_motion_ddot": 0,
        "tle_line1": "1 43603U 18067B   25354.77330059  .00000095  00000+0  00000+0 0  9993",
        "tle_line2": "2 43603  54.1805 187.0544 0005646  37.4026 322.6873  1.86227367 49829"
      },
      "geometry": {
        "type": "Point",
        "coordinates": [
          -167.1661895244008,
          7.976930069677971
        ]
      }
    },
    {
      "type": "Feature",
      "properties": {
        "norad_id": 43622,
        "name": "BEIDOU-3 M13 (C32)",
        "group": "beidou",
        "lat": 31.681996975904635,
        "lon": 92.65943842738193,
        "alt_km": 21527.416572031016,
        "timestamp": "2025-12-21T20:41:08.227493+00:00",
        "meta_object_name": "BEIDOU-3 M13 (C32)",
        "meta_object_id": "2018-072A",
        "meta_epoch": "2025-12-21T06:24:05.172192",
        "meta_mean_motion": 1.86231118,
        "meta_eccentricity": 0.00062116,
        "meta_inclination": 56.4663,
        "meta_ra_of_asc_node": 68.5379,
        "meta_arg_of_pericenter": 298.3671,
        "meta_mean_anomaly": 61.6165,
        "meta_ephemeris_type": 0,
        "meta_classification_type": "U",
        "meta_norad_cat_id": 43622,
        "meta_element_set_no": 999,
        "meta_rev_at_epoch": 4934,
        "meta_bstar": 0,
        "meta_mean_motion_dot": -3.6e-07,
        "meta_mean_motion_ddot": 0,
        "tle_line1": "1 43622U 18072A   25355.26672653 -.00000036  00000+0  00000+0 0  9990",
        "tle_line2": "2 43622  56.4663  68.5379 0006211 298.3671  61.6165  1.86231118 49349"
      },
      "geometry": {
        "type": "Point",
        "coordinates": [
          92.65943842738193,
          31.681996975904635
        ]
      }
    },
    {
      "type": "Feature",
      "properties": {
        "norad_id": 43623,
        "name": "BEIDOU-3 M14 (C33)",
        "group": "beidou",
        "lat": 40.20870074007863,
        "lon": -145.50549801468406,
        "alt_km": 21532.47550139587,
        "timestamp": "2025-12-21T20:41:08.227504+00:00",
        "meta_object_name": "BEIDOU-3 M14 (C33)",
        "meta_object_id": "2018-072B",
        "meta_epoch": "2025-12-20T14:17:08.133792",
        "meta_mean_motion": 1.86231122,
        "meta_eccentricity": 0.00035209,
        "meta_inclination": 56.4674,
        "meta_ra_of_asc_node": 68.5539,
        "meta_arg_of_pericenter": 328.1178,
        "meta_mean_anomaly": 31.9036,
        "meta_ephemeris_type": 0,
        "meta_classification_type": "U",
        "meta_norad_cat_id": 43623,
        "meta_element_set_no": 999,
        "meta_rev_at_epoch": 4932,
        "meta_bstar": 0,
        "meta_mean_motion_dot": -4.2e-07,
        "meta_mean_motion_ddot": 0,
        "tle_line1": "1 43623U 18072B   25354.59523303 -.00000042  00000+0  00000+0 0  9990",
        "tle_line2": "2 43623  56.4674  68.5539 0003520 328.1178  31.9036  1.86231122 49324"
      },
      "geometry": {
        "type": "Point",
        "coordinates": [
          -145.50549801468406,
          40.20870074007863
        ]
      }
    },
    {
      "type": "Feature",
      "properties": {
        "norad_id": 43647,
        "name": "BEIDOU-3 M16 (C35)",
        "group": "beidou",
        "lat": 18.917724234239735,
        "lon": -39.544276972086756,
        "alt_km": 21505.10762748324,
        "timestamp": "2025-12-21T20:41:08.227514+00:00",
        "meta_object_name": "BEIDOU-3 M16 (C35)",
        "meta_object_id": "2018-078A",
        "meta_epoch": "2025-12-21T06:57:26.662752",
        "meta_mean_motion": 1.86232383,
        "meta_eccentricity": 0.00073912,
        "meta_inclination": 54.254,
        "meta_ra_of_asc_node": 306.2225,
        "meta_arg_of_pericenter": 20.1589,
        "meta_mean_anomaly": 339.8673,
        "meta_ephemeris_type": 0,
        "meta_classification_type": "U",
        "meta_norad_cat_id": 43647,
        "meta_element_set_no": 999,
        "meta_rev_at_epoch": 4884,
        "meta_bstar": 0,
        "meta_mean_motion_dot": -6.2e-07,
        "meta_mean_motion_ddot": 0,
        "tle_line1": "1 43647U 18078A   25355.28989193 -.00000062  00000+0  00000+0 0  9994",
        "tle_line2": "2 43647  54.2540 306.2225 0007391  20.1589 339.8673  1.86232383 48840"
      },
      "geometry": {
        "type": "Point",
        "coordinates": [
          -39.544276972086756,
          18.917724234239735
        ]
      }
    },
    {
      "type": "Feature",
      "properties": {
        "norad_id": 43648,
        "name": "BEIDOU-3 M15 (C34)",
        "group": "beidou",
        "lat": -46.40117007774583,
        "lon": -102.90383648720284,
        "alt_km": 21531.800002453132,
        "timestamp": "2025-12-21T20:41:08.227524+00:00",
        "meta_object_name": "BEIDOU-3 M15 (C34)",
        "meta_object_id": "2018-078B",
        "meta_epoch": "2025-12-21T10:03:31.555008",
        "meta_mean_motion": 1.86232355,
        "meta_eccentricity": 0.0004029,
        "meta_inclination": 54.2498,
        "meta_ra_of_asc_node": 306.2184,
        "meta_arg_of_pericenter": 19.9234,
        "meta_mean_anomaly": 340.0899,
        "meta_ephemeris_type": 0,
        "meta_classification_type": "U",
        "meta_norad_cat_id": 43648,
        "meta_element_set_no": 999,
        "meta_rev_at_epoch": 4886,
        "meta_bstar": 0,
        "meta_mean_motion_dot": -6.1e-07,
        "meta_mean_motion_ddot": 0,
        "tle_line1": "1 43648U 18078B   25355.41911522 -.00000061  00000+0  00000+0 0  9990",
        "tle_line2": "2 43648  54.2498 306.2184 0004029  19.9234 340.0899  1.86232355 48860"
      },
      "geometry": {
        "type": "Point",
        "coordinates": [
          -102.90383648720284,
          -46.40117007774583
        ]
      }
    },
    {
      "type": "Feature",
      "properties": {
        "norad_id": 43683,
        "name": "BEIDOU-3 G1 (C59)",
        "group": "beidou",
        "lat": 2.577577792416996,
        "lon": -179.04339256554738,
        "alt_km": 35781.310583479084,
        "timestamp": "2025-12-21T20:41:08.227535+00:00",
        "meta_object_name": "BEIDOU-3 G1 (C59)",
        "meta_object_id": "2018-085A",
        "meta_epoch": "2025-12-21T13:51:51.422400",
        "meta_mean_motion": 1.0026809,
        "meta_eccentricity": 0.00015498,
        "meta_inclination": 2.6287,
        "meta_ra_of_asc_node": 102.7083,
        "meta_arg_of_pericenter": 46.1748,
        "meta_mean_anomaly": 289.4828,
        "meta_ephemeris_type": 0,
        "meta_classification_type": "U",
        "meta_norad_cat_id": 43683,
        "meta_element_set_no": 999,
        "meta_rev_at_epoch": 2627,
        "meta_bstar": 0,
        "meta_mean_motion_dot": -2.57e-06,
        "meta_mean_motion_ddot": 0,
        "tle_line1": "1 43683U 18085A   25355.57767850 -.00000257  00000+0  00000+0 0  9994",
        "tle_line2": "2 43683   2.6287 102.7083 0001549  46.1748 289.4828  1.00268090 26275"
      },
      "geometry": {
        "type": "Point",
        "coordinates": [
          -179.04339256554738,
          2.577577792416996
        ]
      }
    }
  ]
}